STRAND-1                
1 39090U 13009E   26063.48172039  .00000561  00000+0  20324-3 0  9990
2 39090  98.3882 246.3029 0008692 176.9706 183.1535 14.37089808682020
BRITE-AUSTRIA           
1 39091U 13009F   26064.07705221  .00000314  00000+0  12152-3 0  9998
2 39091  98.3951 246.1000 0010079 184.8031 175.3061 14.36492856682102
UNIBRITE                
1 39092U 13009G   26064.28896649  .00000332  00000+0  12790-3 0  9995
2 39092  98.3989 246.3919 0009115 179.8361 180.2830 14.36364258682073
AIST-2 (RS43)           
1 39133U 13015D   26064.29710939  .00009065  00000+0  36668-3 0  9998
2 39133  64.8680 236.7303 0024410 248.8654 110.9866 15.24985094708053
GAOFEN-1                
1 39150U 13018A   26064.31101053  .00001436  00000+0  21281-3 0  9993
2 39150  97.9187 138.4524 0016172 239.3142 120.6475 14.76539501692912
NEE-01 PEGASO           
1 39151U 13018B   26063.94197000  .00005470  00000+0  53036-3 0  9994
2 39151  98.1044 204.7900 0013659 143.6805 216.5343 14.93048644695142
TURKSAT-3USAT           
1 39152U 13018C   26064.21242552  .00005592  00000+0  50676-3 0  9991
2 39152  97.7935 155.5400 0013656  88.7913 271.4873 14.95687761695544
CUBEBUG-1 (CAPITAN BETO)
1 39153U 13018D   26063.89254766  .00006117  00000+0  54259-3 0  9990
2 39153  98.1508 219.3200 0012561 132.1750 228.0539 14.96526967695469
PROBA-V                 
1 39159U 13021A   26063.46431298  .00000131  00000+0  75466-4 0  9994
2 39159  98.3498  47.2910 0005388  81.8512 278.3278 14.23572178666210
ESTCUBE 1               
1 39161U 13021C   26064.09616235  .00002419  00000+0  31823-3 0  9992
2 39161  97.7427 121.8965 0008091   5.5113 354.6187 14.81047631689612
ARIRANG-5 (KOMPSAT-5)   
1 39227U 13042A   26064.28003160  .00001591  00000+0  11790-3 0  9997
2 39227  97.6178 252.4242 0003832 122.7337 237.4259 15.04520670688234
GONETS-M 5              
1 39249U 13048A   26064.27404669  .00000021  00000+0  82144-4 0  9994
2 39249  82.4795  48.1535 0017817  79.6143 280.6944 12.42888353565973
GONETS-M 7              
1 39251U 13048C   26064.31939628  .00000039  00000+0  20942-3 0  9996
2 39251  82.4856  50.9938 0018636  80.7286 279.5900 12.42910629565930
FENGYUN 3C              
1 39260U 13052A   26064.29399576  .00000158  00000+0  10177-3 0  9991
2 39260  98.4885  42.9955 0014036 326.4964  33.5322 14.15727322643865
CASSIOPE                
1 39265U 13055A   26064.33680619  .00039525 -57893-6  47608-3 0  9994
2 39265  80.9192 192.1737 0316968  50.7244 312.1644 15.18383058651871
APRIZESAT 7             
1 39416U 13066A   26063.42446034  .00002440  00000+0  24805-3 0  9994
2 39416  97.7590  18.2464 0035411 196.3756 163.6322 14.91263069665616
