[{"OBJECT_NAME":"STRAND-1","OBJECT_ID":"2013-009E","EPOCH":"2026-03-04T11:33:40.641696","MEAN_MOTION":14.37089808,"ECCENTRICITY":0.00086929,"INCLINATION":98.3882,"RA_OF_ASC_NODE":246.3029,"ARG_OF_PERICENTER":176.9706,"MEAN_ANOMALY":183.1535,"EPHEMERIS_TYPE":0,"CLASSIFICATION_TYPE":"U","NORAD_CAT_ID":39090,"ELEMENT_SET_NO":999,"REV_AT_EPOCH":68202,"BSTAR":0.00020323985,"MEAN_MOTION_DOT":5.61e-6,"MEAN_MOTION_DDOT":0},{"OBJECT_NAME":"BRITE-AUSTRIA","OBJECT_ID":"2013-009F","EPOCH":"2026-03-05T01:50:57.310944","MEAN_MOTION":14.36492856,"ECCENTRICITY":0.00100796,"INCLINATION":98.3951,"RA_OF_ASC_NODE":246.1,"ARG_OF_PERICENTER":184.8031,"MEAN_ANOMALY":175.3061,"EPHEMERIS_TYPE":0,"CLASSIFICATION_TYPE":"U","NORAD_CAT_ID":39091,"ELEMENT_SET_NO":999,"REV_AT_EPOCH":68210,"BSTAR":0.00012151519,"MEAN_MOTION_DOT":3.14e-6,"MEAN_MOTION_DDOT":0},{"OBJECT_NAME":"UNIBRITE","OBJECT_ID":"2013-009G","EPOCH":"2026-03-05T06:56:06.704736","MEAN_MOTION":14.36364258,"ECCENTRICITY":0.0009115,"INCLINATION":98.3989,"RA_OF_ASC_NODE":246.3919,"ARG_OF_PERICENTER":179.8361,"MEAN_ANOMALY":180.283,"EPHEMERIS_TYPE":0,"CLASSIFICATION_TYPE":"U","NORAD_CAT_ID":39092,"ELEMENT_SET_NO":999,"REV_AT_EPOCH":68207,"BSTAR":0.00012790122,"MEAN_MOTION_DOT":3.32e-6,"MEAN_MOTION_DDOT":0},{"OBJECT_NAME":"AIST-2 (RS43)","OBJECT_ID":"2013-015D","EPOCH":"2026-03-05T07:07:50.251296","MEAN_MOTION":15.24985094,"ECCENTRICITY":0.00244102,"INCLINATION":64.868,"RA_OF_ASC_NODE":236.7303,"ARG_OF_PERICENTER":248.8654,"MEAN_ANOMALY":110.9866,"EPHEMERIS_TYPE":0,"CLASSIFICATION_TYPE":"U","NORAD_CAT_ID":39133,"ELEMENT_SET_NO":999,"REV_AT_EPOCH":70805,"BSTAR":0.00036668448,"MEAN_MOTION_DOT":9.065e-5,"MEAN_MOTION_DDOT":0},{"OBJECT_NAME":"GAOFEN-1","OBJECT_ID":"2013-018A","EPOCH":"2026-03-05T07:27:51.309792","MEAN_MOTION":14.76539501,"ECCENTRICITY":0.00161726,"INCLINATION":97.9187,"RA_OF_ASC_NODE":138.4524,"ARG_OF_PERICENTER":239.3142,"MEAN_ANOMALY":120.6475,"EPHEMERIS_TYPE":0,"CLASSIFICATION_TYPE":"U","NORAD_CAT_ID":39150,"ELEMENT_SET_NO":999,"REV_AT_EPOCH":69291,"BSTAR":0.00021281056,"MEAN_MOTION_DOT":1.436e-5,"MEAN_MOTION_DDOT":0},{"OBJECT_NAME":"NEE-01 PEGASO","OBJECT_ID":"2013-018B","EPOCH":"2026-03-04T22:36:26.208000","MEAN_MOTION":14.93048644,"ECCENTRICITY":0.00136593,"INCLINATION":98.1044,"RA_OF_ASC_NODE":204.79,"ARG_OF_PERICENTER":143.6805,"MEAN_ANOMALY":216.5343,"EPHEMERIS_TYPE":0,"CLASSIFICATION_TYPE":"U","NORAD_CAT_ID":39151,"ELEMENT_SET_NO":999,"REV_AT_EPOCH":69514,"BSTAR":0.00053035507,"MEAN_MOTION_DOT":5.47e-5,"MEAN_MOTION_DDOT":0},{"OBJECT_NAME":"TURKSAT-3USAT","OBJECT_ID":"2013-018C","EPOCH":"2026-03-05T05:05:53.564928","MEAN_MOTION":14.95687761,"ECCENTRICITY":0.00136561,"INCLINATION":97.7935,"RA_OF_ASC_NODE":155.54,"ARG_OF_PERICENTER":88.7913,"MEAN_ANOMALY":271.4873,"EPHEMERIS_TYPE":0,"CLASSIFICATION_TYPE":"U","NORAD_CAT_ID":39152,"ELEMENT_SET_NO":999,"REV_AT_EPOCH":69554,"BSTAR":0.00050675871,"MEAN_MOTION_DOT":5.592e-5,"MEAN_MOTION_DDOT":0},{"OBJECT_NAME":"CUBEBUG-1 (CAPITAN BETO)","OBJECT_ID":"2013-018D","EPOCH":"2026-03-04T21:25:16.117824","MEAN_MOTION":14.96526967,"ECCENTRICITY":0.00125618,"INCLINATION":98.1508,"RA_OF_ASC_NODE":219.32,"ARG_OF_PERICENTER":132.175,"MEAN_ANOMALY":228.0539,"EPHEMERIS_TYPE":0,"CLASSIFICATION_TYPE":"U","NORAD_CAT_ID":39153,"ELEMENT_SET_NO":999,"REV_AT_EPOCH":69546,"BSTAR":0.00054258926,"MEAN_MOTION_DOT":6.117e-5,"MEAN_MOTION_DDOT":0},{"OBJECT_NAME":"PROBA-V","OBJECT_ID":"2013-021A","EPOCH":"2026-03-04T11:08:36.641472","MEAN_MOTION":14.23572178,"ECCENTRICITY":0.00053884,"INCLINATION":98.3498,"RA_OF_ASC_NODE":47.291,"ARG_OF_PERICENTER":81.8512,"MEAN_ANOMALY":278.3278,"EPHEMERIS_TYPE":0,"CLASSIFICATION_TYPE":"U","NORAD_CAT_ID":39159,"ELEMENT_SET_NO":999,"REV_AT_EPOCH":66621,"BSTAR":7.546599e-5,"MEAN_MOTION_DOT":1.31e-6,"MEAN_MOTION_DDOT":0},{"OBJECT_NAME":"ESTCUBE 1","OBJECT_ID":"2013-021C","EPOCH":"2026-03-05T02:18:28.427040","MEAN_MOTION":14.81047631,"ECCENTRICITY":0.00080914,"INCLINATION":97.7427,"RA_OF_ASC_NODE":121.8965,"ARG_OF_PERICENTER":5.5113,"MEAN_ANOMALY":354.6187,"EPHEMERIS_TYPE":0,"CLASSIFICATION_TYPE":"U","NORAD_CAT_ID":39161,"ELEMENT_SET_NO":999,"REV_AT_EPOCH":68961,"BSTAR":0.00031823246,"MEAN_MOTION_DOT":2.419e-5,"MEAN_MOTION_DDOT":0},{"OBJECT_NAME":"ARIRANG-5 (KOMPSAT-5)","OBJECT_ID":"2013-042A","EPOCH":"2026-03-05T06:43:14.730240","MEAN_MOTION":15.0452067,"ECCENTRICITY":0.00038321,"INCLINATION":97.6178,"RA_OF_ASC_NODE":252.4242,"ARG_OF_PERICENTER":122.7337,"MEAN_ANOMALY":237.4259,"EPHEMERIS_TYPE":0,"CLASSIFICATION_TYPE":"U","NORAD_CAT_ID":39227,"ELEMENT_SET_NO":999,"REV_AT_EPOCH":68823,"BSTAR":0.00011789512,"MEAN_MOTION_DOT":1.591e-5,"MEAN_MOTION_DDOT":0},{"OBJECT_NAME":"GONETS-M 5","OBJECT_ID":"2013-048A","EPOCH":"2026-03-05T06:34:37.634016","MEAN_MOTION":12.42888353,"ECCENTRICITY":0.0017817,"INCLINATION":82.4795,"RA_OF_ASC_NODE":48.1535,"ARG_OF_PERICENTER":79.6143,"MEAN_ANOMALY":280.6944,"EPHEMERIS_TYPE":0,"CLASSIFICATION_TYPE":"U","NORAD_CAT_ID":39249,"ELEMENT_SET_NO":999,"REV_AT_EPOCH":56597,"BSTAR":8.2144284e-5,"MEAN_MOTION_DOT":2.1e-7,"MEAN_MOTION_DDOT":0},{"OBJECT_NAME":"GONETS-M 7","OBJECT_ID":"2013-048C","EPOCH":"2026-03-05T07:39:55.838592","MEAN_MOTION":12.42910629,"ECCENTRICITY":0.00186365,"INCLINATION":82.4856,"RA_OF_ASC_NODE":50.9938,"ARG_OF_PERICENTER":80.7286,"MEAN_ANOMALY":279.59,"EPHEMERIS_TYPE":0,"CLASSIFICATION_TYPE":"U","NORAD_CAT_ID":39251,"ELEMENT_SET_NO":999,"REV_AT_EPOCH":56593,"BSTAR":0.00020941925,"MEAN_MOTION_DOT":3.9e-7,"MEAN_MOTION_DDOT":0},{"OBJECT_NAME":"FENGYUN 3C","OBJECT_ID":"2013-052A","EPOCH":"2026-03-05T07:03:21.233664","MEAN_MOTION":14.15727322,"ECCENTRICITY":0.00140362,"INCLINATION":98.4885,"RA_OF_ASC_NODE":42.9955,"ARG_OF_PERICENTER":326.4964,"MEAN_ANOMALY":33.5322,"EPHEMERIS_TYPE":0,"CLASSIFICATION_TYPE":"U","NORAD_CAT_ID":39260,"ELEMENT_SET_NO":999,"REV_AT_EPOCH":64386,"BSTAR":0.00010176945,"MEAN_MOTION_DOT":1.58e-6,"MEAN_MOTION_DDOT":0},{"OBJECT_NAME":"CASSIOPE","OBJECT_ID":"2013-055A","EPOCH":"2026-03-05T08:05:00.054816","MEAN_MOTION":15.18383058,"ECCENTRICITY":0.03169683,"INCLINATION":80.9192,"RA_OF_ASC_NODE":192.1737,"ARG_OF_PERICENTER":50.7244,"MEAN_ANOMALY":312.1644,"EPHEMERIS_TYPE":0,"CLASSIFICATION_TYPE":"U","NORAD_CAT_ID":39265,"ELEMENT_SET_NO":999,"REV_AT_EPOCH":65187,"BSTAR":0.00047607978,"MEAN_MOTION_DOT":0.00039525,"MEAN_MOTION_DDOT":-5.78934e-7},{"OBJECT_NAME":"APRIZESAT 7","OBJECT_ID":"2013-066A","EPOCH":"2026-03-04T10:11:13.373376","MEAN_MOTION":14.91263069,"ECCENTRICITY":0.00354116,"INCLINATION":97.759,"RA_OF_ASC_NODE":18.2464,"ARG_OF_PERICENTER":196.3756,"MEAN_ANOMALY":163.6322,"EPHEMERIS_TYPE":0,"CLASSIFICATION_TYPE":"U","NORAD_CAT_ID":39416,"ELEMENT_SET_NO":999,"REV_AT_EPOCH":66561,"BSTAR":0.00024805095,"MEAN_MOTION_DOT":2.44e-5,"MEAN_MOTION_DDOT":0}]
